{"type": "FeatureCollection", "features": [ {"type": "Feature", "properties": {"norad_id": 29750, "name": "FENGYUN 1C DEB", "group": "fengyun-1c-debris", "lat": -72.98725079047875, "lon": 36.994472658876326, "alt_km": 849.421119160219, "timestamp": "2025-12-03T08:58:46.272425+00:00", "meta": {"OBJECT_NAME": "FENGYUN 1C DEB", "OBJECT_ID": "1999-025AQ", "EPOCH": "2025-12-03T01:04:14.736000", "MEAN_MOTION": 14.0962991, "ECCENTRICITY": 0.0035366, "INCLINATION": 98.7558, "RA_OF_ASC_NODE": 6.4297, "ARG_OF_PERICENTER": 329.5013, "MEAN_ANOMALY": 84.1205, "EPHEMERIS_TYPE": 0, "CLASSIFICATION_TYPE": "U", "NORAD_CAT_ID": 29750, "ELEMENT_SET_NO": 999, "REV_AT_EPOCH": 96937, "BSTAR": 0.00032204, "MEAN_MOTION_DOT": 5.24e-06, "MEAN_MOTION_DDOT": 0}, "tle": {"line1": "1 29750U 99025AQ  25337.04461500  .00000524  00000+0  32204-3 0  9992", "line2": "2 29750  98.7558   6.4297 0035366 329.5013  84.1205 14.09629910969376"}}, "geometry": {"type": "Point", "coordinates": [36.994472658876326, -72.98725079047875]}}, {"type": "Feature", "properties": {"norad_id": 29751, "name": "FENGYUN 1C DEB", "group": "fengyun-1c-debris", "lat": -47.936291974982666, "lon": 15.104429642441463, "alt_km": 872.5571665069019, "timestamp": "2025-12-03T08:58:46.272435+00:00", "meta": {"OBJECT_NAME": "FENGYUN 1C DEB", "OBJECT_ID": "1999-025AR", "EPOCH": "2025-12-03T01:02:25.708704", "MEAN_MOTION": 14.23616749, "ECCENTRICITY": 0.0089493, "INCLINATION": 98.5425, "RA_OF_ASC_NODE": 5.1954, "ARG_OF_PERICENTER": 167.2732, "MEAN_ANOMALY": 249.2055, "EPHEMERIS_TYPE": 0, "CLASSIFICATION_TYPE": "U", "NORAD_CAT_ID": 29751, "ELEMENT_SET_NO": 999, "REV_AT_EPOCH": 97935, "BSTAR": 0.00022017, "MEAN_MOTION_DOT": 4.81e-06, "MEAN_MOTION_DDOT": 0}, "tle": {"line1": "1 29751U 99025AR  25337.04335311  .00000481  00000+0  22017-3 0  9996", "line2": "2 29751  98.5425   5.1954 0089493 167.2732 249.2055 14.23616749979357"}}, "geometry": {"type": "Point", "coordinates": [15.104429642441463, -47.936291974982666]}}, {"type": "Feature", "properties": {"norad_id": 29754, "name": "FENGYUN 1C DEB", "group": "fengyun-1c-debris", "lat": -55.038661799419835, "lon": -112.83708781502727, "alt_km": 813.3289821474064, "timestamp": "2025-12-03T08:58:46.272446+00:00", "meta": {"OBJECT_NAME": "FENGYUN 1C DEB", "OBJECT_ID": "1999-025AU", "EPOCH": "2025-12-02T18:56:23.422272", "MEAN_MOTION": 14.19082966, "ECCENTRICITY": 0.0035528, "INCLINATION": 98.8848, "RA_OF_ASC_NODE": 79.5041, "ARG_OF_PERICENTER": 268.0584, "MEAN_ANOMALY": 221.2735, "EPHEMERIS_TYPE": 0, "CLASSIFICATION_TYPE": "U", "NORAD_CAT_ID": 29754, "ELEMENT_SET_NO": 999, "REV_AT_EPOCH": 97213, "BSTAR": 0.0012846, "MEAN_MOTION_DOT": 2.657e-05, "MEAN_MOTION_DDOT": 0}, "tle": {"line1": "1 29754U 99025AU  25336.78915998  .00002657  00000+0  12846-2 0  9999", "line2": "2 29754  98.8848  79.5041 0035528 268.0584 221.2735 14.19082966972136"}}, "geometry": {"type": "Point", "coordinates": [-112.83708781502727, -55.038661799419835]}}, {"type": "Feature", "properties": {"norad_id": 29758, "name": "FENGYUN 1C DEB", "group": "fengyun-1c-debris", "lat": -3.9420235428485966, "lon": -87.85910275084753, "alt_km": 772.4002200897667, "timestamp": "2025-12-03T08:58:46.272456+00:00", "meta": {"OBJECT_NAME": "FENGYUN 1C DEB", "OBJECT_ID": "1999-025AY", "EPOCH": "2025-12-03T00:04:51.833280", "MEAN_MOTION": 14.40725242, "ECCENTRICITY": 0.0020289, "INCLINATION": 98.8559, "RA_OF_ASC_NODE": 92.3728, "ARG_OF_PERICENTER": 337.9046, "MEAN_ANOMALY": 84.132, "EPHEMERIS_TYPE": 0, "CLASSIFICATION_TYPE": "U", "NORAD_CAT_ID": 29758, "ELEMENT_SET_NO": 999, "REV_AT_EPOCH": 97531, "BSTAR": 0.0034346, "MEAN_MOTION_DOT": 0.00010974, "MEAN_MOTION_DDOT": 0}, "tle": {"line1": "1 29758U 99025AY  25337.00337770  .00010974  00000+0  34346-2 0  9995", "line2": "2 29758  98.8559  92.3728 0020289 337.9046  84.1320 14.40725242975315"}}, "geometry": {"type": "Point", "coordinates": [-87.85910275084753, -3.9420235428485966]}}, {"type": "Feature", "properties": {"norad_id": 29760, "name": "FENGYUN 1C DEB", "group": "fengyun-1c-debris", "lat": -72.11311424871526, "lon": 8.356523535963081, "alt_km": 864.1831947583705, "timestamp": "2025-12-03T08:58:46.272467+00:00", "meta": {"OBJECT_NAME": "FENGYUN 1C DEB", "OBJECT_ID": "1999-025BA", "EPOCH": "2025-12-02T23:06:20.149344", "MEAN_MOTION": 14.08278297, "ECCENTRICITY": 0.0130356, "INCLINATION": 98.7623, "RA_OF_ASC_NODE": 339.4096, "ARG_OF_PERICENTER": 201.1788, "MEAN_ANOMALY": 158.3956, "EPHEMERIS_TYPE": 0, "CLASSIFICATION_TYPE": "U", "NORAD_CAT_ID": 29760, "ELEMENT_SET_NO": 999, "REV_AT_EPOCH": 96955, "BSTAR": 0.00019855, "MEAN_MOTION_DOT": 3.24e-06, "MEAN_MOTION_DDOT": 0}, "tle": {"line1": "1 29760U 99025BA  25336.96273321  .00000324  00000+0  19855-3 0  9990", "line2": "2 29760  98.7623 339.4096 0130356 201.1788 158.3956 14.08278297969559"}}, "geometry": {"type": "Point", "coordinates": [8.356523535963081, -72.11311424871526]}}, {"type": "Feature", "properties": {"norad_id": 29762, "name": "FENGYUN 1C DEB", "group": "fengyun-1c-debris", "lat": 47.852445576286414, "lon": 150.00614060658907, "alt_km": 902.2029535539014, "timestamp": "2025-12-03T08:58:46.272478+00:00", "meta": {"OBJECT_NAME": "FENGYUN 1C DEB", "OBJECT_ID": "1999-025BC", "EPOCH": "2025-12-02T22:29:34.664928", "MEAN_MOTION": 14.2254412, "ECCENTRICITY": 0.0204636, "INCLINATION": 98.5783, "RA_OF_ASC_NODE": 319.9801, "ARG_OF_PERICENTER": 4.149, "MEAN_ANOMALY": 48.9817, "EPHEMERIS_TYPE": 0, "CLASSIFICATION_TYPE": "U", "NORAD_CAT_ID": 29762, "ELEMENT_SET_NO": 999, "REV_AT_EPOCH": 97809, "BSTAR": 0.00055655, "MEAN_MOTION_DOT": 1.493e-05, "MEAN_MOTION_DDOT": 0}, "tle": {"line1": "1 29762U 99025BC  25336.93720677  .00001493  00000+0  55655-3 0  9996", "line2": "2 29762  98.5783 319.9801 0204636   4.1490  48.9817 14.22544120978093"}}, "geometry": {"type": "Point", "coordinates": [150.00614060658907, 47.852445576286414]}}, {"type": "Feature", "properties": {"norad_id": 29763, "name": "FENGYUN 1C DEB", "group": "fengyun-1c-debris", "lat": 51.334923299595424, "lon": 148.16779551516268, "alt_km": 843.6131297398679, "timestamp": "2025-12-03T08:58:46.272489+00:00", "meta": {"OBJECT_NAME": "FENGYUN 1C DEB", "OBJECT_ID": "1999-025BD", "EPOCH": "2025-12-02T22:23:50.634816", "MEAN_MOTION": 14.07866886, "ECCENTRICITY": 0.0126969, "INCLINATION": 98.7601, "RA_OF_ASC_NODE": 316.6293, "ARG_OF_PERICENTER": 208.2466, "MEAN_ANOMALY": 207.4354, "EPHEMERIS_TYPE": 0, "CLASSIFICATION_TYPE": "U", "NORAD_CAT_ID": 29763, "ELEMENT_SET_NO": 999, "REV_AT_EPOCH": 96912, "BSTAR": 0.00015764, "MEAN_MOTION_DOT": 2.45e-06, "MEAN_MOTION_DDOT": 0}, "tle": {"line1": "1 29763U 99025BD  25336.93322494  .00000245  00000+0  15764-3 0  9993", "line2": "2 29763  98.7601 316.6293 0126969 208.2466 207.4354 14.07866886969127"}}, "geometry": {"type": "Point", "coordinates": [148.16779551516268, 51.334923299595424]}}, {"type": "Feature", "properties": {"norad_id": 29765, "name": "FENGYUN 1C DEB", "group": "fengyun-1c-debris", "lat": -25.13587808629956, "lon": 171.66994151890756, "alt_km": 889.2117968025505, "timestamp": "2025-12-03T08:58:46.272499+00:00", "meta": {"OBJECT_NAME": "FENGYUN 1C DEB", "OBJECT_ID": "1999-025BF", "EPOCH": "2025-12-02T08:05:17.141280", "MEAN_MOTION": 14.02147322, "ECCENTRICITY": 0.0059532, "INCLINATION": 98.831, "RA_OF_ASC_NODE": 354.8482, "ARG_OF_PERICENTER": 121.4399, "MEAN_ANOMALY": 250.9003, "EPHEMERIS_TYPE": 0, "CLASSIFICATION_TYPE": "U", "NORAD_CAT_ID": 29765, "ELEMENT_SET_NO": 999, "REV_AT_EPOCH": 96605, "BSTAR": 0.00027846, "MEAN_MOTION_DOT": 3.9e-06, "MEAN_MOTION_DDOT": 0}, "tle": {"line1": "1 29765U 99025BF  25336.33700395  .00000390  00000+0  27846-3 0  9994", "line2": "2 29765  98.8310 354.8482 0059532 121.4399 250.9003 14.02147322966058"}}, "geometry": {"type": "Point", "coordinates": [171.66994151890756, -25.13587808629956]}}, {"type": "Feature", "properties": {"norad_id": 29766, "name": "FENGYUN 1C DEB", "group": "fengyun-1c-debris", "lat": 13.560712408406497, "lon": 109.6293327171733, "alt_km": 995.6112232290025, "timestamp": "2025-12-03T08:58:46.272510+00:00", "meta": {"OBJECT_NAME": "FENGYUN 1C DEB", "OBJECT_ID": "1999-025BG", "EPOCH": "2025-12-03T03:06:03.584160", "MEAN_MOTION": 13.9697868, "ECCENTRICITY": 0.0146975, "INCLINATION": 98.6834, "RA_OF_ASC_NODE": 287.2855, "ARG_OF_PERICENTER": 314.8867, "MEAN_ANOMALY": 61.0357, "EPHEMERIS_TYPE": 0, "CLASSIFICATION_TYPE": "U", "NORAD_CAT_ID": 29766, "ELEMENT_SET_NO": 999, "REV_AT_EPOCH": 95670, "BSTAR": 0.0020962, "MEAN_MOTION_DOT": 3.16e-05, "MEAN_MOTION_DDOT": 0}, "tle": {"line1": "1 29766U 99025BG  25337.12920815  .00003160  00000+0  20962-2 0  9993", "line2": "2 29766  98.6834 287.2855 0146975 314.8867  61.0357 13.96978680956702"}}, "geometry": {"type": "Point", "coordinates": [109.6293327171733, 13.560712408406497]}}, {"type": "Feature", "properties": {"norad_id": 29767, "name": "FENGYUN 1C DEB", "group": "fengyun-1c-debris", "lat": -30.590845209422834, "lon": 122.08572468592003, "alt_km": 1014.5946224729105, "timestamp": "2025-12-03T08:58:46.272520+00:00", "meta": {"OBJECT_NAME": "FENGYUN 1C DEB", "OBJECT_ID": "1999-025BH", "EPOCH": "2025-12-03T04:39:08.186400", "MEAN_MOTION": 14.03198913, "ECCENTRICITY": 0.0333072, "INCLINATION": 98.1983, "RA_OF_ASC_NODE": 306.8119, "ARG_OF_PERICENTER": 88.3622, "MEAN_ANOMALY": 288.9446, "EPHEMERIS_TYPE": 0, "CLASSIFICATION_TYPE": "U", "NORAD_CAT_ID": 29767, "ELEMENT_SET_NO": 999, "REV_AT_EPOCH": 95466, "BSTAR": 0.0022746, "MEAN_MOTION_DOT": 5.764e-05, "MEAN_MOTION_DDOT": 0}, "tle": {"line1": "1 29767U 99025BH  25337.19384475  .00005764  00000+0  22746-2 0  9991", "line2": "2 29767  98.1983 306.8119 0333072  88.3622 288.9446 14.03198913954666"}}, "geometry": {"type": "Point", "coordinates": [122.08572468592003, -30.590845209422834]}}]}